STARLINK-31844          
1 60583U 24150A   26091.60208238 -.00005412  00000+0 -17062-3 0  9993
2 60583  53.1608 200.2999 0000934  79.8258 280.2848 15.30224053 91550
STARLINK-32204          
1 60584U 24150B   26091.56315022 -.00000119  00000+0  81079-5 0  9998
2 60584  53.1615 200.7644 0000779  79.5543 280.5546 15.30181863 91540
STARLINK-32130          
1 60585U 24150C   26091.58635998  .00001076  00000+0  48455-4 0  9990
2 60585  53.1625 200.9115 0001458 102.8314 257.2849 15.30196611 91463
STARLINK-32173          
1 60586U 24150D   26091.28920732  .00001707  00000+0  69722-4 0  9992
2 60586  53.1598 201.8950 0000573 122.4306 237.6750 15.30197780 91502
STARLINK-31911          
1 60587U 24150E   26091.57686920  .00005725  00000+0  20536-3 0  9996
2 60587  53.1596 200.8514 0001765  93.3300 266.7903 15.30187136 91462
STARLINK-31994          
1 60588U 24150F   26091.02058497 -.00000226  00000+0  45017-5 0  9994
2 60588  53.1605 203.0597 0000979 102.3395 257.7715 15.30181788 91380
STARLINK-32169          
1 60589U 24150G   26091.59797174  .00000190  00000+0  18523-4 0  9999
2 60589  53.1587 200.9800 0000398  53.5159 306.5879 15.30192116 91542
STARLINK-32209          
1 60590U 24150H   26091.29449465  .00000884  00000+0  41998-4 0  9997
2 60590  53.1605 201.9279 0001635 115.8979 244.2190 15.30191704 91505
STARLINK-32170          
1 60591U 24150J   26091.59269102  .00000113  00000+0  15948-4 0  9990
2 60591  53.1605 200.9456 0001306  59.7702 300.3428 15.30201067 91464
STARLINK-31497          
1 60592U 24150K   26091.56947771  .00001740  00000+0  70875-4 0  9990
2 60592  53.1599 200.8022 0001134  76.6066 283.5061 15.30195879 91542
STARLINK-32161          
1 60593U 24150L   26091.29238880  .00001397  00000+0  59300-4 0  9993
2 60593  53.1614 201.9136 0001006 117.3594 242.7509 15.30192580 91423
STARLINK-32210          
1 60594U 24150M   26091.27867064  .00001858  00000+0  74869-4 0  9993
2 60594  53.1597 201.8247 0001800  77.0567 283.0635 15.30187087 91503
STARLINK-32202          
1 60595U 24150N   26091.32193386 -.00000338  00000+0  70572-6 0  9991
2 60595  53.1577 202.1006 0001179  79.7233 280.3901 15.30201033 91501
STARLINK-31930          
1 60596U 24150P   26091.02374941 -.00000833  00000+0 -16020-4 0  9994
2 60596  53.1599 203.0821 0001464  96.7341 263.3827 15.30184502 91382
STARLINK-32162          
1 60597U 24150Q   26091.59586292 -.00001173  00000+0 -27508-4 0  9992
2 60597  53.1593 200.9657 0000882  79.5789 280.5311 15.30193930 91540
STARLINK-32208          
1 60598U 24150R   26091.33776544  .00001346  00000+0  57542-4 0  9997
2 60598  53.1607 202.2002 0000664  71.8793 288.2280 15.30195736 91506
STARLINK-32165          
1 60599U 24150S   26091.32826807  .00001688  00000+0  69127-4 0  9996
2 60599  53.1596 202.1397 0000785  54.5637 305.5437 15.30188754 91508
STARLINK-31923          
1 60600U 24150T   26091.57897537  .00000243  00000+0  20346-4 0  9990
2 60600  53.1610 200.8614 0001601  82.9846 277.1337 15.30193633 91549
STARLINK-31988          
1 60601U 24150U   26091.57264704  .00001280  00000+0  55375-4 0  9997
2 60601  53.1611 200.8222 0001265  90.3479 269.7667 15.30183763 91464
STARLINK-31983          
1 60602U 24150V   26091.55997835  .00001217  00000+0  53212-4 0  9992
2 60602  53.1613 200.7421 0001475  97.1709 262.9460 15.30200239 91465
STARLINK-31874          
1 60603U 24150W   26091.56631378  .00000970  00000+0  44852-4 0  9996
2 60603  53.1585 200.7825 0000334 347.5917  12.5076 15.30192806 91549
STARLINK-32039          
1 60604U 24150X   26091.29514521  .00004471  00000+0  16316-3 0  9990
2 60604  53.1596 204.7738 0001500  92.1501 267.9672 15.30165411 91468
ZHONGXING-4A            
1 60606U 24151A   26091.93447513 -.00000372  00000+0  00000+0 0  9996
2 60606   1.5112 271.6678 0001210  87.0479 286.1744  1.00274817  5991
STARLINK-11247 [DTC]    
1 60720U 24152A   26091.94734563  .00003985  00000+0  37724-4 0  9999
2 60720  53.1574   1.9225 0001267  95.5752 264.5411 15.69720188 92483
STARLINK-11259 [DTC]    
1 60721U 24152B   26091.94244910 -.00002444  00000+0 -15321-4 0  9992
2 60721  53.1586   1.8900 0000848 105.7533 254.3578 15.69714691 92484
STARLINK-11188 [DTC]    
1 60722U 24152C   26091.93752820  .00003392  00000+0  32825-4 0  9995
2 60722  53.1605   1.8562 0000574  52.5277 307.5793 15.69721324 92606
STARLINK-11272 [DTC]    
1 60723U 24152D   26091.92772768  .00000782  00000+0  11308-4 0  9991
2 60723  53.1599   1.7921 0000776  91.6183 268.4924 15.69707392 92487
STARLINK-11261 [DTC]    
1 60724U 24152E   26091.93262818  .00001151  00000+0  14353-4 0  9997
2 60724  53.1591   1.8242 0000864  95.8180 264.2936 15.69716093 92483
STARLINK-11263 [DTC]    
1 60725U 24152F   26091.92281709  .00000695  00000+0  10594-4 0  9992
2 60725  53.1602   1.7561 0001168  97.2528 262.8623 15.69717992 92486
STARLINK-11235 [DTC]    
1 60726U 24152G   26091.91791457  .00002561  00000+0  25981-4 0  9998
2 60726  53.1580   1.7267 0001068  89.9509 270.1631 15.69715750 92617
STARLINK-11080 [DTC]    
1 60727U 24152H   26091.91300691  .00000099  00000+0  56725-5 0  9990
2 60727  53.1592   1.6934 0000708  71.9154 288.1941 15.69717742 92614
STARLINK-11249 [DTC]    
1 60728U 24152J   26091.97177167  .00001447  00000+0  16790-4 0  9992
2 60728  53.1586   1.3448 0000948 103.8583 256.2541 15.69716585 92494
STARLINK-11146 [DTC]    
1 60729U 24152K   26091.96686367  .00002328  00000+0  24058-4 0  9994
2 60729  53.1573   1.3022 0001037 104.0538 256.0595 15.69717509 92621
STARLINK-11255 [DTC]    
1 60730U 24152L   26091.96196137  .00002550  00000+0  25896-4 0  9995
2 60730  53.1570   1.2803 0000815 100.4753 259.6357 15.69713416 92503
STARLINK-11254 [DTC]    
1 60731U 24152M   26091.95705475  .00003196  00000+0  31219-4 0  9999
2 60731  53.1587   1.2475 0000784  83.1237 276.9870 15.69711803 92506
STARLINK-11266 [DTC]    
1 60732U 24152N   26091.95214909  .00003029  00000+0  29851-4 0  9991
2 60732  53.1583   1.1996 0001028 114.2015 245.9110 15.69712028 92493
STARLINK-32253          
1 60733U 24152P   26091.88801191  .00004378  00000+0  15983-3 0  9997
2 60733  53.1573 160.5914 0001252  87.1757 272.9387 15.30203468 90353
STARLINK-32179          
1 60734U 24152Q   26091.47302416  .00002171  00000+0  85434-4 0  9997
2 60734  53.1597 162.9920 0001225  77.5909 282.5229 15.30188863 90202
STARLINK-32272          
1 60735U 24152R   26091.97958353  .00637461  20170-3  10037-2 0  9995
2 60735  53.1321 138.7443 0015968   3.9676 356.1479 16.03083228 90678
STARLINK-32289          
1 60737U 24152T   26091.91755840  .00003027  00000+0  11432-3 0  9999
2 60737  53.1603 160.7837 0001093  92.0426 268.0700 15.30189476 90401
STARLINK-32304          
1 60738U 24152U   26091.39188280  .00000727  00000+0  36672-4 0  9998
2 60738  53.1594 163.1952 0000830  75.0989 285.0103 15.30195027 90325
STARLINK-32235          
1 60739U 24152V   26091.91123010 -.00000031  00000+0  11066-4 0  9996
2 60739  53.1606 160.7454 0001178  87.6841 272.4295 15.30190210 90356
STARLINK-32315          
1 60740U 24152W   26091.90806630  .00001731  00000+0  70594-4 0  9991
2 60740  53.1632 160.7251 0001203  99.7843 260.3294 15.30188001 90278
2024-153A               
1 60745U 24153A   26091.98489641  .00028425  00000+0  70370-3 0  9994
2 60745  97.6619 229.7151 0007732  50.8367 309.3564 15.40365891 88353
2024-153B               
1 60746U 24153B   26091.97640765  .00018673  00000+0  61756-3 0  9992
2 60746  97.6662 228.6842 0011098  74.8542 285.3925 15.31343516 88284
2024-153C               
1 60747U 24153C   26091.92898501  .00033667  00000+0  90463-3 0  9998
2 60747  97.6662 230.7111 0009794  67.2533 292.9745 15.37797640 88410
2024-153D               
1 60748U 24153D   26091.94504536  .00019609  00000+0  77282-3 0  9997
2 60748  97.6672 227.7572 0003305 109.7524 250.4071 15.25624473 88212
2024-153E               
1 60749U 24153E   26091.93686397  .00019645  00000+0  78885-3 0  9993
2 60749  97.6631 227.3252 0001734 146.4344 213.7003 15.25000393 88206
2024-153F               
1 60750U 24153F   26091.95663230  .00018721  00000+0  77729-3 0  9998
2 60750  97.6598 226.7289 0006779 147.5076 212.6579 15.23868463 88182
STARLINK-11242 [DTC]    
1 60903U 24154A   26091.96563134 -.00003646  00000+0 -25227-4 0  9991
2 60903  53.1593  16.2676 0001094  59.2865 300.8260 15.69725539 92173
STARLINK-11256 [DTC]    
1 60904U 24154B   26091.96072622  .00000835  00000+0  11746-4 0  9995
2 60904  53.1599  16.2309 0001035 104.6994 255.4139 15.69714758 92177
STARLINK-11159 [DTC]    
1 60905U 24154C   26091.95101921  .00003825  00000+0  36418-4 0  9995
2 60905  53.1591  16.9021 0001145  83.5660 276.5488 15.69708123 92164
STARLINK-11264 [DTC]    
1 60906U 24154D   26091.94611713  .00003605  00000+0  34598-4 0  9993
2 60906  53.1596  16.8717 0001180  80.7515 279.3636 15.69714250 92162
STARLINK-11226 [DTC]    
1 60907U 24154E   26091.94120641  .00001777  00000+0  19527-4 0  9992
2 60907  53.1594  16.8363 0001337 111.4130 248.7031 15.69711748 92165
STARLINK-11229 [DTC]    
1 60908U 24154F   26091.04493505 -.00001639  00000+0 -86867-5 0  9997
2 60908  53.1587  21.1984 0000253  85.5323 274.5724 15.69709068 92020
STARLINK-11265 [DTC]    
1 60909U 24154G   26091.95592251 -.00000151  00000+0  36093-5 0  9999
2 60909  53.1583  16.9331 0001203  72.0255 288.0894 15.69721025 92166
STARLINK-11250 [DTC]    
1 60910U 24154H   26091.04003693 -.00000108  00000+0  39691-5 0  9997
2 60910  53.1585  21.1651 0000870  82.2804 277.8312 15.69697826 92022
STARLINK-11190 [DTC]    
1 60911U 24154J   26091.09880063  .00003798  00000+0  36224-4 0  9992
2 60911  53.1594  20.8210 0001094  69.0185 291.0950 15.69684845 92027
STARLINK-11225 [DTC]    
1 60912U 24154K   26091.22121992  .00007119  00000+0  63584-4 0  9997
2 60912  53.1594  20.1572 0001205  74.2611 285.8540 15.69704474 92047
